{
    "links": {
        "self": "http://www.neowsapp.com/rest/v1/neo/3667429?api_key=iIulBulltgU6a56xZRHN4H3l9WmuAYTsLGpBGhQ2"
    },
    "id": "3667429",
    "neo_reference_id": "3667429",
    "name": "(2014 GR45)",
    "designation": "2014 GR45",
    "nasa_jpl_url": "http://ssd.jpl.nasa.gov/sbdb.cgi?sstr=3667429",
    "absolute_magnitude_h": 23.9,
    "estimated_diameter": {
        "kilometers": {
            "estimated_diameter_min": 0.04411182,
            "estimated_diameter_max": 0.0986370281
        },
        "meters": {
            "estimated_diameter_min": 44.1118199997,
            "estimated_diameter_max": 98.6370281305
        },
        "miles": {
            "estimated_diameter_min": 0.0274098057,
            "estimated_diameter_max": 0.0612901888
        },
        "feet": {
            "estimated_diameter_min": 144.7238235278,
            "estimated_diameter_max": 323.6123073718
        }
    },
    "is_potentially_hazardous_asteroid": false,
    "close_approach_data": [
        {
            "close_approach_date": "2014-03-17",
            "close_approach_date_full": "2014-Mar-17 01:59",
            "epoch_date_close_approach": 1395021540000,
            "relative_velocity": {
                "kilometers_per_second": "10.3850429587",
                "kilometers_per_hour": "37386.1546513726",
                "miles_per_hour": "23230.3025943487"
            },
            "miss_distance": {
                "astronomical": "0.061746286",
                "lunar": "24.019305254",
                "kilometers": "9237112.86601082",
                "miles": "5739675.782636516"
            },
            "orbiting_body": "Earth"
        }
    ],
    "orbital_data": {
        "orbit_id": "7",
        "orbit_determination_date": "2017-04-06 08:41:36",
        "first_observation_date": "2014-04-08",
        "last_observation_date": "2014-04-23",
        "data_arc_in_days": 15,
        "observations_used": 30,
        "orbit_uncertainty": "8",
        "minimum_orbit_intersection": ".0122042",
        "jupiter_tisserand_invariant": "3.648",
        "epoch_osculation": "2456756.5",
        "eccentricity": ".5274398391442801",
        "semi_major_axis": "2.006586020433248",
        "inclination": "2.068753432261697",
        "ascending_node_longitude": "130.3876472019695",
        "orbital_period": "1038.209743226433",
        "perihelion_distance": ".9482326125867745",
        "perihelion_argument": "5.698297901289246",
        "aphelion_distance": "3.06493942827972",
        "perihelion_time": "2456703.906706554979",
        "mean_anomaly": "18.2367635862941",
        "mean_motion": ".3467507431410074",
        "equinox": "J2000",
        "orbit_class": {
            "orbit_class_type": "APO",
            "orbit_class_description": "Near-Earth asteroid orbits which cross the Earth’s orbit similar to that of 1862 Apollo",
            "orbit_class_range": "a (semi-major axis) > 1.0 AU; q (perihelion) < 1.017 AU"
        }
    },
    "is_sentry_object": false
}